ORBCOMM FM06            
1 25118U 97084G   26195.53144279  .00000488  00000+0  17033-3 0  9999
2 25118  45.0138 281.0706 0001457 229.7599 144.8337 14.47626387498351
ORBCOMM FM04            
1 25159U 98007C   26197.02998558  .00000339  00000+0  16175-3 0  9994
2 25159 107.9633 228.7844 0041972 275.5031  84.1323 14.35785362480731
ORBCOMM FM19            
1 25415U 98046C   26197.17770035  .00000380  00000+0  16612-3 0  9998
2 25415  44.9935 105.7519 0003217  69.0417  82.7920 14.39542326460952
ORBCOMM FM20            
1 25416U 98046D   26197.12069541  .00000297  00000+0  14378-3 0  9991
2 25416  44.9934 114.2656 0001317   4.5535 355.5325 14.38101089460959
ORBCOMM FM27            
1 25481U 98053G   26196.71802564  .00000294  00000+0  13985-3 0  9995
2 25481  45.0036 199.8360 0002384 293.0455  67.0142 14.39185302454347
ORBCOMM FM32            
1 25982U 99065C   26196.93051742  .00000257  00000+0  13289-3 0  9999
2 25982  45.0159  37.1820 0005749 195.6927 164.3744 14.37168558391221
ORBCOMM FM109           
1 40086U 14040A   26196.31488832  .00000100  00000+0  57384-4 0  9999
2 40086  47.0043 318.5000 0001490 322.3297  37.7484 14.58872584638458
ORBCOMM FM110           
1 41182U 15081D   26197.14149796  .00000146  00000+0  67064-4 0  9994
2 41182  47.0004 224.5348 0003623 226.4287 133.6298 14.58918610561856
ORBCOMM FM118           
1 41183U 15081E   26197.10745080  .00000040  00000+0  44645-4 0  9992
2 41183  47.0024 225.0341 0002933 190.6424 169.4400 14.58904245561958
ORBCOMM FM112           
1 41184U 15081F   26197.17991544  .00000258  00000+0  90670-4 0  9998
2 41184  46.9982 133.1428 0003635 332.4516  27.6177 14.58939360563182
ORBCOMM FM113           
1 41185U 15081G   26197.02058053  .00000109  00000+0  59311-4 0  9994
2 41185  47.0000 134.2879 0002187 324.3840  35.6900 14.58882535563149
ORBCOMM FM108           
1 41187U 15081J   26196.98256122  .00000239  00000+0  86643-4 0  9999
2 41187  47.0055  46.0488 0002594 325.0041  35.0674 14.58911191564289
ORBCOMM FM117           
1 41188U 15081K   26196.94830253  .00000215  00000+0  81799-4 0  9990
2 41188  47.0019  44.8376 0003013 332.4251  27.6475 14.58898153564327
ORBCOMM FM116           
1 41189U 15081L   26197.20237632  .00000082  00000+0  53592-4 0  9995
2 41189  47.0016 133.4253 0001567 232.4849 127.5894 14.58906396563174
